{
  "norad_id": 61549,
  "name": "STARLINK-32389",
  "history": [
    {
      "epoch": "2026-03-28T19:21:45.010080",
      "apogee_km": 476.12381139191893,
      "perigee_km": 474.4042930679143,
      "latitude_deg": -31.2648509157179,
      "longitude_deg": 52.350011199945584,
      "semi_major_axis_km": 6853.401052229916,
      "eccentricity": 0.00012545,
      "inclination_deg": 53.1621,
      "raan_deg": 285.166,
      "arg_perigee_deg": 85.4327,
      "mean_anomaly_deg": 274.6817,
      "mean_motion_rev_day": 15.30183595
    }
  ]
}